H-2A R/B                
1 27601U 02056E   17118.86507132  .00000045  00000-0  31356-4 0  9990
2 27601  98.3797 188.3566 0073405  82.0242  27.4019 14.31776505750751
CZ-4B R/B               
1 28059U 03049C   17118.77374337  .00000024  00000-0  17763-4 0  9993
2 28059  98.5682   3.7148 0050977  39.1198   2.5872 14.52484813716510
CZ-2C R/B               
1 28222U 04012C   17118.91005316  .00001099  00000-0  71467-4 0  9994
2 28222  97.5205  76.3459 0048390 356.8010  34.6020 15.09176577713146
SL-16 R/B               
1 28353U 04021B   17118.70630559  .00000316  00000-0  19040-3 0  9998
2 28353  71.0010 182.2356 0007131 272.5226  87.5079 14.14194139665153
CZ-2C R/B               
1 28480U 04046B   17118.91174994  .00000016  00000-0  21467-4 0  9999
2 28480  98.1930 218.2811 0142175  10.5125  97.0026 14.25634342647196
ARIANE 5 R/B            
1 28499U 04049H   17118.90619448  .00000086  00000-0  18041-4 0  9990
2 28499  98.0794 201.6349 0092785  15.6266 112.8748 14.79807416666661
CZ-2D R/B               
1 28738U 05024B   17118.86782739  .00000662  00000-0  43306-4 0  9991
2 28738  97.5023 156.7030 0012586 167.1500 193.0053 15.11088756648360
SUZAKU (ASTRO-EII)      
1 28773U 05025A   17118.80385123  .00001587  00000-0  76791-4 0  9992
2 28773  31.3830 256.6515 0004829 213.6680 146.3660 15.15719343649853
ALOS (DAICHI)           
1 28931U 06002A   17118.94125725  .00000209  00000-0  49972-4 0  9990
2 28931  97.8475 148.7495 0002579  99.3016 260.8478 14.62343652600269
H-2A R/B                
1 28932U 06002B   17118.90782707  .00000355  00000-0  39218-4 0  9990
2 28932  98.2072  39.8131 0091344 112.6259 314.4278 14.91323203610460
AKARI (ASTRO-F)         
1 28939U 06005A   17118.94455725  .00002857  00000-0  90201-4 0  9999
2 28939  98.2557 314.8020 0107396 357.9505   2.1277 15.28402561605573
RESURS-DK 1             
1 29228U 06021A   17118.89770275  .00000226  00000-0  24544-4 0  9998
2 29228  69.9360 223.4779 0002632  18.3805 341.7450 15.02139377600693
GENESIS 1               
1 29252U 06029A   17118.90538000  .00000841  00000-0  52885-4 0  9995
2 29252  64.5042  86.4540 0011565 304.2366  86.6925 15.16710818594273
CZ-4B R/B               
1 29507U 06046C   17118.90943974  .00000958  00000-0  80393-4 0  9991
2 29507  97.7953 126.3957 0043774  50.0046 310.5007 15.00080712573609
CZ-2C R/B               
1 31114U 07010B   17118.84814416  .00000018  00000-0  27667-4 0  9993
2 31114  98.4028  23.8734 0059842   0.0801   0.0375 14.19239801520502
COSMO-SKYMED 1          
1 31598U 07023A   17118.82340002  .00000434  00000-0  61025-4 0  9994
2 31598  97.8797 303.2767 0001643  88.3045 271.8353 14.82163803535137
GENESIS 2               
1 31789U 07028A   17118.52531613  .00000785  00000-0  50772-4 0  9994
2 31789  64.5028 125.4638 0034323 228.6291 131.1878 15.15991049541372
COSMOS 2428             
1 31792U 07029A   17118.90642744  .00000035  00000-0  44998-4 0  9990
2 31792  70.9121 155.5791 0008101 327.3262  32.7357 14.12257049507028
SL-16 R/B               
1 31793U 07029B   17118.59308251  .00000204  00000-0  13155-3 0  9996
2 31793  70.9739 133.3364 0002474 261.5549 236.4974 14.14383464507669
KORONAS-FOTON           
1 33504U 09003A   17118.88960167  .00000326  00000-0  15842-4 0  9995
2 33504  82.4403 281.9619 0017922 281.2679  78.6538 15.14781598453918
TIANGONG 1              
1 37820U 11053A   17118.51410690  .00032625  00000-0  19887-3 0  9998
2 37820  42.7588 143.6834 0016838  84.4803  40.3873 15.76576743320122
CZ-3B R/B               
1 38253U 12018D   17118.88959695  .01672277  45941-5  67510-3 0  9992
2 38253  54.8670 340.0987 1785407 183.9098 174.6029 12.26628477121563
H-2A R/B                
1 38341U 12025E   17118.80086595  .00000229  00000-0  34695-4 0  9992
2 38341  98.4364 193.0559 0055004 318.1934  41.5082 14.83551565267479
CUSAT 2 & FALCON 9 R/B  
1 39271U 13055G   17118.88410522  .00011596  00000-0  30044-3 0  9990
2 39271  80.9714  49.2776 0635333 348.2124  10.4745 14.36680715185540
ALOS-2                  
1 39766U 14029A   17118.87824947 -.00000122  00000-0 -94449-5 0  9996
2 39766  97.9187 216.9068 0001415  81.3538 278.7861 14.79471494158312
ASTRO-H (HITOMI)        
1 41337U 16012A   17118.95759519  .00000421  00000-0  27487-4 0  9995
2 41337  31.0060  70.7476 0012582 274.2811  85.6386 14.98288458 65536
